{
  "norad_id": 58112,
  "name": "STARLINK-30593",
  "history": [
    {
      "epoch": "2026-03-28T09:25:20.416224Z",
      "apogee_km": 476.083260123879,
      "perigee_km": 474.34607254349703,
      "latitude_deg": 2.210642250346482e-05,
      "longitude_deg": 111.6121514763327,
      "height_km": 476.00103161546673,
      "semi_major_axis_km": 6853.351666333688,
      "eccentricity": 0.00012674,
      "inclination_deg": 53.1607,
      "raan_deg": 78.7609,
      "arg_perigee_deg": 82.6046,
      "mean_anomaly_deg": 277.5099,
      "mean_motion_rev_day": 15.30200135
    },
    {
      "epoch": "2026-03-29T04:13:59.009952Z",
      "apogee_km": 476.07374663991413,
      "perigee_km": 474.3617786202085,
      "latitude_deg": -7.4109392020139584e-06,
      "longitude_deg": -174.96280670146666,
      "height_km": 475.9500515551744,
      "semi_major_axis_km": 6853.354762630061,
      "eccentricity": 0.0001249,
      "inclination_deg": 53.1603,
      "raan_deg": 75.1193,
      "arg_perigee_deg": 78.8258,
      "mean_anomaly_deg": 281.2883,
      "mean_motion_rev_day": 15.30199098
    },
    {
      "epoch": "2026-03-30T05:18:50.183424Z",
      "apogee_km": 476.1515673461063,
      "perigee_km": 474.2970477762801,
      "latitude_deg": -3.053441421343068e-05,
      "longitude_deg": 162.94061874199872,
      "height_km": 475.99995193222065,
      "semi_major_axis_km": 6853.361307561193,
      "eccentricity": 0.0001353,
      "inclination_deg": 53.1605,
      "raan_deg": 70.266,
      "arg_perigee_deg": 82.4152,
      "mean_anomaly_deg": 277.7002,
      "mean_motion_rev_day": 15.30196906
    },
    {
      "epoch": "2026-03-30T05:18:50.184288Z",
      "apogee_km": 476.1518414805578,
      "perigee_km": 474.2967736418277,
      "latitude_deg": -3.4192444104606565e-05,
      "longitude_deg": 162.94061240680747,
      "height_km": 475.99991574908495,
      "semi_major_axis_km": 6853.361307561193,
      "eccentricity": 0.00013534,
      "inclination_deg": 53.1605,
      "raan_deg": 70.266,
      "arg_perigee_deg": 82.4152,
      "mean_anomaly_deg": 277.7002,
      "mean_motion_rev_day": 15.30196906
    },
    {
      "epoch": "2026-03-30T08:26:56.649120Z",
      "apogee_km": 476.13639022731877,
      "perigee_km": 474.3191520246055,
      "latitude_deg": -4.2582261923801536e-05,
      "longitude_deg": 115.17851432940128,
      "height_km": 476.01698807948594,
      "semi_major_axis_km": 6853.364771125962,
      "eccentricity": 0.00013258,
      "inclination_deg": 53.1606,
      "raan_deg": 69.6596,
      "arg_perigee_deg": 83.1186,
      "mean_anomaly_deg": 276.9965,
      "mean_motion_rev_day": 15.30195746
    },
    {
      "epoch": "2026-03-31T15:48:00.688320Z",
      "apogee_km": 476.15196011875287,
      "perigee_km": 474.3207387597831,
      "latitude_deg": -5.4749139131415245e-05,
      "longitude_deg": -2.4427678905820027,
      "height_km": 476.0239085176773,
      "semi_major_axis_km": 6853.373349439267,
      "eccentricity": 0.0001336,
      "inclination_deg": 53.1614,
      "raan_deg": 63.5927,
      "arg_perigee_deg": 83.0623,
      "mean_anomaly_deg": 277.0529,
      "mean_motion_rev_day": 15.30192873
    },
    {
      "epoch": "2026-04-01T15:18:48.975840Z",
      "apogee_km": 476.37678113121,
      "perigee_km": 474.1206465542127,
      "latitude_deg": 2.585342046733529e-05,
      "longitude_deg": -0.6589661429193112,
      "height_km": 476.29921667381785,
      "semi_major_axis_km": 6853.385713842711,
      "eccentricity": 0.0001646,
      "inclination_deg": 53.163,
      "raan_deg": 59.0433,
      "arg_perigee_deg": 97.7756,
      "mean_anomaly_deg": 262.3432,
      "mean_motion_rev_day": 15.30188732
    },
    {
      "epoch": "2026-04-02T14:49:37.526016Z",
      "apogee_km": 476.12964634054424,
      "perigee_km": 474.39902543520566,
      "latitude_deg": -3.3389271971837184e-05,
      "longitude_deg": 1.1247336375823311,
      "height_km": 476.151683719362,
      "semi_major_axis_km": 6853.401335887875,
      "eccentricity": 0.00012626,
      "inclination_deg": 53.1625,
      "raan_deg": 54.495,
      "arg_perigee_deg": 89.2713,
      "mean_anomaly_deg": 270.8432,
      "mean_motion_rev_day": 15.301835
    },
    {
      "epoch": "2026-04-03T20:36:34.486272Z",
      "apogee_km": 477.1122584856266,
      "perigee_km": 473.13736663434247,
      "latitude_deg": -2.400876547517095e-05,
      "longitude_deg": -92.59991693184448,
      "height_km": 476.32300521205616,
      "semi_major_axis_km": 6853.261812559985,
      "eccentricity": 0.00029,
      "inclination_deg": 53.1622,
      "raan_deg": 48.7308,
      "arg_perigee_deg": 98.747,
      "mean_anomaly_deg": 261.3859,
      "mean_motion_rev_day": 15.30230229
    },
    {
      "epoch": "2026-04-04T13:51:11.888352Z",
      "apogee_km": 476.60458090106204,
      "perigee_km": 473.8550101426972,
      "latitude_deg": 5.648679089342779e-05,
      "longitude_deg": 4.698825945012231,
      "height_km": 476.05669669272635,
      "semi_major_axis_km": 6853.366795521879,
      "eccentricity": 0.0002006,
      "inclination_deg": 53.1623,
      "raan_deg": 45.3935,
      "arg_perigee_deg": 87.066,
      "mean_anomaly_deg": 273.0571,
      "mean_motion_rev_day": 15.30195068
    },
    {
      "epoch": "2026-04-05T13:22:02.665056Z",
      "apogee_km": 476.56021775653426,
      "perigee_km": 474.1135275839906,
      "latitude_deg": -2.114867711360767e-05,
      "longitude_deg": 6.468007145204063,
      "height_km": 476.53073973938615,
      "semi_major_axis_km": 6853.473872670262,
      "eccentricity": 0.0001785,
      "inclination_deg": 53.1618,
      "raan_deg": 40.84,
      "arg_perigee_deg": 104.015,
      "mean_anomaly_deg": 256.1049,
      "mean_motion_rev_day": 15.30159207
    },
    {
      "epoch": "2026-04-06T06:36:35.879328Z",
      "apogee_km": 476.4977847047994,
      "perigee_km": 473.97259118842976,
      "latitude_deg": -2.5805605915649243e-05,
      "longitude_deg": 103.78318264078871,
      "height_km": 476.285640503226,
      "semi_major_axis_km": 6853.372187946615,
      "eccentricity": 0.00018423,
      "inclination_deg": 53.1606,
      "raan_deg": 37.5017,
      "arg_perigee_deg": 96.9648,
      "mean_anomaly_deg": 263.1562,
      "mean_motion_rev_day": 15.30193262
    },
    {
      "epoch": "2026-04-07T12:23:35.894688Z",
      "apogee_km": 475.6552131573162,
      "perigee_km": 474.73590712769874,
      "latitude_deg": 4.2607872255725616e-05,
      "longitude_deg": 10.050008087094698,
      "height_km": 476.48492161436496,
      "semi_major_axis_km": 6853.332560142507,
      "eccentricity": 6.707e-05,
      "inclination_deg": 53.16,
      "raan_deg": 31.7417,
      "arg_perigee_deg": 148.0687,
      "mean_anomaly_deg": 212.0355,
      "mean_motion_rev_day": 15.30206534
    },
    {
      "epoch": "2026-04-07T18:39:49.140576Z",
      "apogee_km": 476.03062113339365,
      "perigee_km": 474.42967456765473,
      "latitude_deg": -4.4204878921134555e-05,
      "longitude_deg": -85.47806252355716,
      "height_km": 476.29758826821575,
      "semi_major_axis_km": 6853.367147850524,
      "eccentricity": 0.0001168,
      "inclination_deg": 53.1581,
      "raan_deg": 30.5264,
      "arg_perigee_deg": 102.2171,
      "mean_anomaly_deg": 257.896,
      "mean_motion_rev_day": 15.3019495
    },
    {
      "epoch": "2026-04-08T11:54:24.583968Z",
      "apogee_km": 476.2750904517525,
      "perigee_km": 474.1615156762864,
      "latitude_deg": 2.17802244825902e-05,
      "longitude_deg": 11.827051467118366,
      "height_km": 476.33453067143125,
      "semi_major_axis_km": 6853.355303064019,
      "eccentricity": 0.0001542,
      "inclination_deg": 53.1641,
      "raan_deg": 27.1873,
      "arg_perigee_deg": 101.9076,
      "mean_anomaly_deg": 258.2098,
      "mean_motion_rev_day": 15.30198917
    },
    {
      "epoch": "2026-04-09T11:25:12.487008Z",
      "apogee_km": 476.2091770634788,
      "perigee_km": 474.25555559191434,
      "latitude_deg": -3.7904185762017105e-05,
      "longitude_deg": 13.611350884759057,
      "height_km": 476.26927920599314,
      "semi_major_axis_km": 6853.369366327696,
      "eccentricity": 0.00014253,
      "inclination_deg": 53.1633,
      "raan_deg": 22.6369,
      "arg_perigee_deg": 98.1618,
      "mean_anomaly_deg": 261.9544,
      "mean_motion_rev_day": 15.30194207
    }
  ]
}